<?xml version="1.0" encoding="UTF-8"?>
<ndm xmlns:xsi="http://www.w3.org/2001/XMLSchema-instance" xsi:noNamespaceSchemaLocation="https://sanaregistry.org/r/ndmxml_unqualified/ndmxml-2.0.0-master-2.0.xsd">
<omm id="CCSDS_OMM_VERS" version="2.0">
<header><CREATION_DATE/><ORIGINATOR/></header><body><segment><metadata><OBJECT_NAME>KUIPER-00095</OBJECT_NAME><OBJECT_ID>2025-171C</OBJECT_ID><CENTER_NAME>EARTH</CENTER_NAME><REF_FRAME>TEME</REF_FRAME><TIME_SYSTEM>UTC</TIME_SYSTEM><MEAN_ELEMENT_THEORY>SGP4</MEAN_ELEMENT_THEORY></metadata><data><meanElements><EPOCH>2025-10-29T22:54:19.050624</EPOCH><MEAN_MOTION>15.37774406</MEAN_MOTION><ECCENTRICITY>.00051297</ECCENTRICITY><INCLINATION>51.8752</INCLINATION><RA_OF_ASC_NODE>21.3133</RA_OF_ASC_NODE><ARG_OF_PERICENTER>60.4582</ARG_OF_PERICENTER><MEAN_ANOMALY>299.6916</MEAN_ANOMALY></meanElements><tleParameters><EPHEMERIS_TYPE>0</EPHEMERIS_TYPE><CLASSIFICATION_TYPE>U</CLASSIFICATION_TYPE><NORAD_CAT_ID>65134</NORAD_CAT_ID><ELEMENT_SET_NO>999</ELEMENT_SET_NO><REV_AT_EPOCH>1346</REV_AT_EPOCH><BSTAR>.18476439E-2</BSTAR><MEAN_MOTION_DOT>.69919E-3</MEAN_MOTION_DOT><MEAN_MOTION_DDOT>0</MEAN_MOTION_DDOT></tleParameters></data></segment></body></omm>
<omm id="CCSDS_OMM_VERS" version="2.0">
<header><CREATION_DATE/><ORIGINATOR/></header><body><segment><metadata><OBJECT_NAME>KUIPER-00096</OBJECT_NAME><OBJECT_ID>2025-171D</OBJECT_ID><CENTER_NAME>EARTH</CENTER_NAME><REF_FRAME>TEME</REF_FRAME><TIME_SYSTEM>UTC</TIME_SYSTEM><MEAN_ELEMENT_THEORY>SGP4</MEAN_ELEMENT_THEORY></metadata><data><meanElements><EPOCH>2025-10-30T06:00:02.000160</EPOCH><MEAN_MOTION>15.25108831</MEAN_MOTION><ECCENTRICITY>.00084129</ECCENTRICITY><INCLINATION>51.8788</INCLINATION><RA_OF_ASC_NODE>20.3337</RA_OF_ASC_NODE><ARG_OF_PERICENTER>66.0334</ARG_OF_PERICENTER><MEAN_ANOMALY>270.9408</MEAN_ANOMALY></meanElements><tleParameters><EPHEMERIS_TYPE>0</EPHEMERIS_TYPE><CLASSIFICATION_TYPE>U</CLASSIFICATION_TYPE><NORAD_CAT_ID>65135</NORAD_CAT_ID><ELEMENT_SET_NO>999</ELEMENT_SET_NO><REV_AT_EPOCH>495</REV_AT_EPOCH><BSTAR>-.96487419E-2</BSTAR><MEAN_MOTION_DOT>-.237869E-2</MEAN_MOTION_DOT><MEAN_MOTION_DDOT>0</MEAN_MOTION_DDOT></tleParameters></data></segment></body></omm>
<omm id="CCSDS_OMM_VERS" version="2.0">
<header><CREATION_DATE/><ORIGINATOR/></header><body><segment><metadata><OBJECT_NAME>KUIPER-00097</OBJECT_NAME><OBJECT_ID>2025-171E</OBJECT_ID><CENTER_NAME>EARTH</CENTER_NAME><REF_FRAME>TEME</REF_FRAME><TIME_SYSTEM>UTC</TIME_SYSTEM><MEAN_ELEMENT_THEORY>SGP4</MEAN_ELEMENT_THEORY></metadata><data><meanElements><EPOCH>2025-10-30T06:00:02.000160</EPOCH><MEAN_MOTION>15.16613473</MEAN_MOTION><ECCENTRICITY>.00065787</ECCENTRICITY><INCLINATION>51.8899</INCLINATION><RA_OF_ASC_NODE>21.5805</RA_OF_ASC_NODE><ARG_OF_PERICENTER>56.7550</ARG_OF_PERICENTER><MEAN_ANOMALY>339.0906</MEAN_ANOMALY></meanElements><tleParameters><EPHEMERIS_TYPE>0</EPHEMERIS_TYPE><CLASSIFICATION_TYPE>U</CLASSIFICATION_TYPE><NORAD_CAT_ID>65136</NORAD_CAT_ID><ELEMENT_SET_NO>999</ELEMENT_SET_NO><REV_AT_EPOCH>523</REV_AT_EPOCH><BSTAR>-.72092361E-1</BSTAR><MEAN_MOTION_DOT>-.130228E-1</MEAN_MOTION_DOT><MEAN_MOTION_DDOT>0</MEAN_MOTION_DDOT></tleParameters></data></segment></body></omm>
<omm id="CCSDS_OMM_VERS" version="2.0">
<header><CREATION_DATE/><ORIGINATOR/></header><body><segment><metadata><OBJECT_NAME>KUIPER-00098</OBJECT_NAME><OBJECT_ID>2025-171F</OBJECT_ID><CENTER_NAME>EARTH</CENTER_NAME><REF_FRAME>TEME</REF_FRAME><TIME_SYSTEM>UTC</TIME_SYSTEM><MEAN_ELEMENT_THEORY>SGP4</MEAN_ELEMENT_THEORY></metadata><data><meanElements><EPOCH>2025-10-30T06:00:02.000160</EPOCH><MEAN_MOTION>15.10141699</MEAN_MOTION><ECCENTRICITY>.0007175</ECCENTRICITY><INCLINATION>51.8845</INCLINATION><RA_OF_ASC_NODE>22.2560</RA_OF_ASC_NODE><ARG_OF_PERICENTER>56.5376</ARG_OF_PERICENTER><MEAN_ANOMALY>59.4031</MEAN_ANOMALY></meanElements><tleParameters><EPHEMERIS_TYPE>0</EPHEMERIS_TYPE><CLASSIFICATION_TYPE>U</CLASSIFICATION_TYPE><NORAD_CAT_ID>65137</NORAD_CAT_ID><ELEMENT_SET_NO>999</ELEMENT_SET_NO><REV_AT_EPOCH>274</REV_AT_EPOCH><BSTAR>-.11698901E-1</BSTAR><MEAN_MOTION_DOT>-.188569E-2</MEAN_MOTION_DOT><MEAN_MOTION_DDOT>0</MEAN_MOTION_DDOT></tleParameters></data></segment></body></omm>
<omm id="CCSDS_OMM_VERS" version="2.0">
<header><CREATION_DATE/><ORIGINATOR/></header><body><segment><metadata><OBJECT_NAME>KUIPER-00099</OBJECT_NAME><OBJECT_ID>2025-171G</OBJECT_ID><CENTER_NAME>EARTH</CENTER_NAME><REF_FRAME>TEME</REF_FRAME><TIME_SYSTEM>UTC</TIME_SYSTEM><MEAN_ELEMENT_THEORY>SGP4</MEAN_ELEMENT_THEORY></metadata><data><meanElements><EPOCH>2025-10-30T06:00:02.000160</EPOCH><MEAN_MOTION>15.33728404</MEAN_MOTION><ECCENTRICITY>.00073624</ECCENTRICITY><INCLINATION>51.8783</INCLINATION><RA_OF_ASC_NODE>19.6783</RA_OF_ASC_NODE><ARG_OF_PERICENTER>64.2582</ARG_OF_PERICENTER><MEAN_ANOMALY>251.1998</MEAN_ANOMALY></meanElements><tleParameters><EPHEMERIS_TYPE>0</EPHEMERIS_TYPE><CLASSIFICATION_TYPE>U</CLASSIFICATION_TYPE><NORAD_CAT_ID>65138</NORAD_CAT_ID><ELEMENT_SET_NO>999</ELEMENT_SET_NO><REV_AT_EPOCH>401</REV_AT_EPOCH><BSTAR>-.40517268E-1</BSTAR><MEAN_MOTION_DOT>-.1218103E-1</MEAN_MOTION_DOT><MEAN_MOTION_DDOT>0</MEAN_MOTION_DDOT></tleParameters></data></segment></body></omm>
<omm id="CCSDS_OMM_VERS" version="2.0">
<header><CREATION_DATE/><ORIGINATOR/></header><body><segment><metadata><OBJECT_NAME>KUIPER-00100</OBJECT_NAME><OBJECT_ID>2025-171H</OBJECT_ID><CENTER_NAME>EARTH</CENTER_NAME><REF_FRAME>TEME</REF_FRAME><TIME_SYSTEM>UTC</TIME_SYSTEM><MEAN_ELEMENT_THEORY>SGP4</MEAN_ELEMENT_THEORY></metadata><data><meanElements><EPOCH>2025-10-29T22:26:50.406432</EPOCH><MEAN_MOTION>15.38220919</MEAN_MOTION><ECCENTRICITY>.00057835</ECCENTRICITY><INCLINATION>51.8767</INCLINATION><RA_OF_ASC_NODE>21.1910</RA_OF_ASC_NODE><ARG_OF_PERICENTER>45.9477</ARG_OF_PERICENTER><MEAN_ANOMALY>314.1985</MEAN_ANOMALY></meanElements><tleParameters><EPHEMERIS_TYPE>0</EPHEMERIS_TYPE><CLASSIFICATION_TYPE>U</CLASSIFICATION_TYPE><NORAD_CAT_ID>65139</NORAD_CAT_ID><ELEMENT_SET_NO>999</ELEMENT_SET_NO><REV_AT_EPOCH>1345</REV_AT_EPOCH><BSTAR>.21993792E-2</BSTAR><MEAN_MOTION_DOT>.847E-3</MEAN_MOTION_DOT><MEAN_MOTION_DDOT>0</MEAN_MOTION_DDOT></tleParameters></data></segment></body></omm>
<omm id="CCSDS_OMM_VERS" version="2.0">
<header><CREATION_DATE/><ORIGINATOR/></header><body><segment><metadata><OBJECT_NAME>KUIPER-00102</OBJECT_NAME><OBJECT_ID>2025-171J</OBJECT_ID><CENTER_NAME>EARTH</CENTER_NAME><REF_FRAME>TEME</REF_FRAME><TIME_SYSTEM>UTC</TIME_SYSTEM><MEAN_ELEMENT_THEORY>SGP4</MEAN_ELEMENT_THEORY></metadata><data><meanElements><EPOCH>2025-10-30T05:11:37.468896</EPOCH><MEAN_MOTION>15.34897061</MEAN_MOTION><ECCENTRICITY>.00066656</ECCENTRICITY><INCLINATION>51.8769</INCLINATION><RA_OF_ASC_NODE>20.0681</RA_OF_ASC_NODE><ARG_OF_PERICENTER>78.2784</ARG_OF_PERICENTER><MEAN_ANOMALY>281.8949</MEAN_ANOMALY></meanElements><tleParameters><EPHEMERIS_TYPE>0</EPHEMERIS_TYPE><CLASSIFICATION_TYPE>U</CLASSIFICATION_TYPE><NORAD_CAT_ID>65140</NORAD_CAT_ID><ELEMENT_SET_NO>999</ELEMENT_SET_NO><REV_AT_EPOCH>1349</REV_AT_EPOCH><BSTAR>-.33204548E-2</BSTAR><MEAN_MOTION_DOT>-.112877E-2</MEAN_MOTION_DOT><MEAN_MOTION_DDOT>0</MEAN_MOTION_DDOT></tleParameters></data></segment></body></omm>
<omm id="CCSDS_OMM_VERS" version="2.0">
<header><CREATION_DATE/><ORIGINATOR/></header><body><segment><metadata><OBJECT_NAME>KUIPER-00103</OBJECT_NAME><OBJECT_ID>2025-171K</OBJECT_ID><CENTER_NAME>EARTH</CENTER_NAME><REF_FRAME>TEME</REF_FRAME><TIME_SYSTEM>UTC</TIME_SYSTEM><MEAN_ELEMENT_THEORY>SGP4</MEAN_ELEMENT_THEORY></metadata><data><meanElements><EPOCH>2025-10-30T06:00:02.000160</EPOCH><MEAN_MOTION>14.84549329</MEAN_MOTION><ECCENTRICITY>.00073565</ECCENTRICITY><INCLINATION>51.8977</INCLINATION><RA_OF_ASC_NODE>27.4549</RA_OF_ASC_NODE><ARG_OF_PERICENTER>72.8064</ARG_OF_PERICENTER><MEAN_ANOMALY>355.8933</MEAN_ANOMALY></meanElements><tleParameters><EPHEMERIS_TYPE>0</EPHEMERIS_TYPE><CLASSIFICATION_TYPE>U</CLASSIFICATION_TYPE><NORAD_CAT_ID>65141</NORAD_CAT_ID><ELEMENT_SET_NO>999</ELEMENT_SET_NO><REV_AT_EPOCH>338</REV_AT_EPOCH><BSTAR>-.24676956E-2</BSTAR><MEAN_MOTION_DOT>-.21198E-3</MEAN_MOTION_DOT><MEAN_MOTION_DDOT>0</MEAN_MOTION_DDOT></tleParameters></data></segment></body></omm>

</ndm>
