KUIPER-00095            
1 65134U 25171C   25302.95438716  .00069919  00000+0  18476-2 0  9991
2 65134  51.8752  21.3133 0005129  60.4582 299.6916 15.37774406 13464
KUIPER-00096            
1 65135U 25171D   25303.25002315 -.00237869  00000+0 -96487-2 0  9999
2 65135  51.8788  20.3337 0008412  66.0334 270.9408 15.25108831  4956
KUIPER-00097            
1 65136U 25171E   25303.25002315 -.01302280  00000+0 -72092-1 0  9996
2 65136  51.8899  21.5805 0006578  56.7550 339.0906 15.16613473  5235
KUIPER-00098            
1 65137U 25171F   25303.25002315 -.00188569  00000+0 -11699-1 0  9994
2 65137  51.8845  22.2560 0007175  56.5376  59.4031 15.10141699  2746
KUIPER-00099            
1 65138U 25171G   25303.25002315 -.01218103  00000+0 -40517-1 0  9995
2 65138  51.8783  19.6783 0007362  64.2582 251.1998 15.33728404  4013
KUIPER-00100            
1 65139U 25171H   25302.93530563  .00084700  00000+0  21994-2 0  9991
2 65139  51.8767  21.1910 0005783  45.9477 314.1985 15.38220919 13457
KUIPER-00102            
1 65140U 25171J   25303.21640589 -.00112877  00000+0 -33205-2 0  9992
2 65140  51.8769  20.0681 0006665  78.2784 281.8949 15.34897061 13492
KUIPER-00103            
1 65141U 25171K   25303.25002315 -.00021198  00000+0 -24677-2 0  9994
2 65141  51.8977  27.4549 0007356  72.8064 355.8933 14.84549329  3384
